STARLINK-1404_new
1 15686C 20035AF  21326.15589365  .00008729  00000-0  58479-3 0  3261
2 15686  53.0536 258.0452 0001996  60.1635 268.0642 15.06392583    16
STARLINK-1404_old
1 25686C 20035AF  21325.11406117  .00006270  00000-0  42023-3 0  3255
2 25686  53.0533 262.7220 0001894  58.9467  16.2931 15.06380154    18
